{
    "links": {
        "self": "http://www.neowsapp.com/rest/v1/neo/3152319?api_key=iIulBulltgU6a56xZRHN4H3l9WmuAYTsLGpBGhQ2"
    },
    "id": "3152319",
    "neo_reference_id": "3152319",
    "name": "(2003 GS22)",
    "designation": "2003 GS22",
    "nasa_jpl_url": "http://ssd.jpl.nasa.gov/sbdb.cgi?sstr=3152319",
    "absolute_magnitude_h": 23.1,
    "estimated_diameter": {
        "kilometers": {
            "estimated_diameter_min": 0.063760979,
            "estimated_diameter_max": 0.1425738833
        },
        "meters": {
            "estimated_diameter_min": 63.7609789875,
            "estimated_diameter_max": 142.5738833281
        },
        "miles": {
            "estimated_diameter_min": 0.0396192233,
            "estimated_diameter_max": 0.0885912765
        },
        "feet": {
            "estimated_diameter_min": 209.1895703015,
            "estimated_diameter_max": 467.7620993781
        }
    },
    "is_potentially_hazardous_asteroid": false,
    "close_approach_data": [
        {
            "close_approach_date": "2003-02-19",
            "close_approach_date_full": "2003-Feb-19 07:54",
            "epoch_date_close_approach": 1045641240000,
            "relative_velocity": {
                "kilometers_per_second": "5.4360518742",
                "kilometers_per_hour": "19569.7867469736",
                "miles_per_hour": "12159.904437307"
            },
            "miss_distance": {
                "astronomical": "0.1870403039",
                "lunar": "72.7586782171",
                "kilometers": "27980831.067592693",
                "miles": "17386482.2035094434"
            },
            "orbiting_body": "Earth"
        }
    ],
    "orbital_data": {
        "orbit_id": "8",
        "orbit_determination_date": "2017-04-06 09:14:10",
        "first_observation_date": "2003-04-07",
        "last_observation_date": "2003-04-25",
        "data_arc_in_days": 18,
        "observations_used": 18,
        "orbit_uncertainty": "8",
        "minimum_orbit_intersection": ".166566",
        "jupiter_tisserand_invariant": "3.085",
        "epoch_osculation": "2452741.5",
        "eccentricity": ".5775108292180334",
        "semi_major_axis": "2.735558717243828",
        "inclination": "2.411871711501068",
        "ascending_node_longitude": "148.2349748256668",
        "orbital_period": "1652.599011028306",
        "perihelion_distance": "1.155743934073725",
        "perihelion_argument": "4.058016438020541",
        "aphelion_distance": "4.315373500413932",
        "perihelion_time": "2452687.452052441668",
        "mean_anomaly": "11.77373397367128",
        "mean_motion": ".2178386877866974",
        "equinox": "J2000",
        "orbit_class": {
            "orbit_class_type": "AMO",
            "orbit_class_description": "Near-Earth asteroid orbits similar to that of 1221 Amor",
            "orbit_class_range": "1.017 AU < q (perihelion) < 1.3 AU"
        }
    },
    "is_sentry_object": false
}